FLOCK 4G-24             
1 62637U 25009AE  26068.72509072  .00010513  00000+0  38996-3 0  9991
2 62637  97.4061 151.5140 0001802 280.2808  79.8228 15.27784978 63732
STARLINK-33958          
1 63850U 25093Q   26068.39605712  .00030737  00000+0  11217-2 0  9999
2 63850  43.0022  79.8737 0001471 260.8576  99.2109 15.27582198 47765
